#aV2015  9 20  0  0  0.00000000     288 DD+AD WGS84 FIT  NGA
## 1863      0.00000000   300.00000000 57285 0.0000000000000
+   31     1  2  3  4  5  6  7  8  9 11 12 13 14 15 16 17 18
+         19 20 21 22 23 24 25 26 27 28 29 30 31 32  0  0  0
+          0  0  0  0  0  0  0  0  0  0  0  0  0  0  0  0  0
+          0  0  0  0  0  0  0  0  0  0  0  0  0  0  0  0  0
+          0  0  0  0  0  0  0  0  0  0  0  0  0  0  0  0  0
++         2  2  2  2  2  2  2  2  2  2  2  2  2  2  2  2  2
++         2  2  2  2  2  2  2  2  2  2  2  2  2  2  0  0  0
++         0  0  0  0  0  0  0  0  0  0  0  0  0  0  0  0  0
++         0  0  0  0  0  0  0  0  0  0  0  0  0  0  0  0  0
++         0  0  0  0  0  0  0  0  0  0  0  0  0  0  0  0  0
%c cc cc ccc ccc cccc cccc cccc cccc ccccc ccccc ccccc ccccc
%c cc cc ccc ccc cccc cccc cccc cccc ccccc ccccc ccccc ccccc
%f  0.0000000  0.000000000  0.00000000000  0.000000000000000
%f  0.0000000  0.000000000  0.00000000000  0.000000000000000
%i    0    0    0    0      0      0      0      0         0
%i    0    0    0    0      0      0      0      0         0
/*      NGA, ST. LOUIS,MO.                                  
/*   EPHEMERIS COMPUTED FROM  1 DAYS OF DATA                
/*   EPOCHA SMOOTHER                                       
/* CCCCCCCCCCCCCCCCCCCCCCCCCCCCCCCCCCCCCCCCCCCCCCCCCCCCCCCCC
*  2015  9 20 23 55  0.00000000
P  1 -12873.089766  22513.907254  -5280.293207      0.867830                    
V  1  -6324.811110   3508.539984  30978.935962      0.007148                    
P  2  19675.262418  -9279.817055 -14549.972130    589.741180                    
V  2  -8916.260826  17442.410170 -23024.690984      0.015821                    
P  3  -8762.210646  13686.073624 -21003.112960     21.195355                    
V  3 -26364.673064  -4221.357222   8220.912834      0.002812                    
P  4 -17526.479638  19386.450561   3521.417599    -22.898559                    
V  4    -16.937297  -6157.436742  31039.235060     -0.042307                    
P  5  25115.553102  -2972.187932   8369.638311   -193.336897                    
V  5  10242.184688   4152.340954 -28863.281938      0.040412                    
P  6  16140.235400   2845.843150 -20899.298121     61.953948                    
V  6 -15495.819768  21550.678636  -9040.566444      0.072976                    
P  7   -536.057790  19851.075354  17564.523243    484.436653                    
V  7 -15292.391403  16175.348758 -19260.196211     -0.006956                    
P  8  -8833.080499  15134.933461  20005.199236     -5.978925                    
V  8 -10804.104461 -22910.801454  12575.344280     -0.013776                    
P  9   7331.645025  25168.178435  -4231.862594     -8.387079                    
V  9  -4769.052303  -3824.593296 -31059.165738      0.020530                    
P 11  -9998.444528  24313.584386   2868.397043   -605.444662                    
V 11  -3460.507198  -5622.112431  29968.432061     -0.023342                    
P 12  11731.602560 -11729.697522 -20792.786291    329.935238                    
V 12  25586.698803   5407.678514  11646.715711      0.034118                    
P 13  14198.796847  -4487.724769  21862.420645   -150.706237                    
V 13   7752.778211  26945.141179    386.813677     -0.029379                    
P 14 -14325.172048 -19465.436958 -10934.170238     33.346829                    
V 14  -2262.713613 -14207.236212  27466.809597     -0.026092                    
P 15   8293.260324 -15971.943331  19334.890286   -272.670393                    
V 15  12287.294648  21797.906314  13002.779327     -0.020429                    
P 16 -25372.643249    494.961918   8372.395888    -84.476401                    
V 16 -10116.620546  -3513.975716 -29799.741145      0.039462                    
P 17  15014.040208  18660.097944 -11403.730659   -188.371969                    
V 17   3186.853275  14642.258705  27222.331994     -0.013575                    
P 18 -11584.394210 -15496.070945  18817.642905    435.798365                    
V 18  22934.600898    824.438572  14927.827013      0.032895                    
P 19  -4128.541970  21251.134368  14891.015193   -520.392402                    
V 19  -7789.672509 -17936.245333  23518.544494     -0.005667                    
P 20  12345.438001 -13636.604596  19032.174409    356.914303                    
V 20  24462.337291   3042.331533 -13497.922107      0.030583                    
P 21  -3978.608543 -18515.990863  19210.144000   -481.185996                    
V 21  15101.085670 -17595.860583 -14704.468712     -0.027405                    
P 22 -22804.475476  -9928.568573   9798.378556    393.274036                    
V 22  12415.333458  -2029.910788  27330.736026      0.037608                    
P 23  -3324.973109  21048.755972 -15408.794549   -134.378204                    
V 23 -10024.518387 -17587.088085 -22058.337932     -0.021817                    
P 24  14316.085024 -22149.583321  -2339.134076     -5.010768                    
V 24   4336.677831   -458.010754  31478.201551     -0.006242                    
P 25  -2875.847361 -15138.634487 -21753.245169    -41.513013                    
V 25  27111.223574   3266.433760  -5725.541202     -0.051921                    
P 26 -26066.913355  -4719.931459  -1971.967523    -58.898218                    
V 26   2835.608094  -2466.262282 -31619.887882     -0.113921                    
P 27 -15259.693122   2059.161595  21626.660581     21.292770                    
V 27 -10298.496319 -25485.802831  -4715.571934      0.029956                    
P 28  19483.195919  12937.624234  13289.385470    468.984773                    
V 28 -15715.435279  -1914.728974  26063.544589      0.027301                    
P 29  -4285.200846 -25419.620245  -6468.655009    635.359385                    
V 29   4853.042719   6995.867274 -30607.931384      0.021514                    
P 30   9041.584270  12716.735919  21485.280333     27.994126                    
V 30 -18488.883534  20109.720902  -4202.633122      0.065423                    
P 31 -16482.747670  -2073.314938 -20670.916104    302.132160                    
V 31  16270.197526 -20830.259008 -10486.299973     -0.013586                    
P 32 -20102.234477   7107.859290 -15533.308696    -37.475738                    
V 32 -18911.360487  -6707.075529  22004.894377      0.111113                    
EOF
